<?xml version='1.0' encoding='UTF-8'?>
<gpx version="1.1" creator="https://www.komoot.de" xmlns="http://www.topografix.com/GPX/1/1" xmlns:xsi="http://www.w3.org/2001/XMLSchema-instance" xsi:schemaLocation="http://www.topografix.com/GPX/1/1 http://www.topografix.com/GPX/1/1/gpx.xsd">
  <metadata>
    <name>Loop&amp;Bloom Backyard 🌼</name>
    <author>
      <link href="https://www.komoot.de">
        <text>komoot</text>
        <type>text/html</type>
      </link>
    </author>
  </metadata>
  <wpt lat="50.576624" lon="2.969578">
    <name>Le Perchoir</name>
    <sym>Flag, Blue</sym>
  </wpt>
  <trk>
    <name>Loop&amp;Bloom Backyard 🌼</name>
    <type>jogging</type>
    <trkseg>
      <trkpt lat="50.579753" lon="2.980258">
        <ele>19.567511</ele>
        <time>2026-09-21T08:31:13.211Z</time>
      </trkpt>
      <trkpt lat="50.579837" lon="2.980269">
        <ele>19.567511</ele>
        <time>2026-09-21T08:31:16.644Z</time>
      </trkpt>
      <trkpt lat="50.579928" lon="2.980263">
        <ele>19.567511</ele>
        <time>2026-09-21T08:31:20.351Z</time>
      </trkpt>
      <trkpt lat="50.579906" lon="2.979978">
        <ele>19.567511</ele>
        <time>2026-09-21T08:31:27.766Z</time>
      </trkpt>
      <trkpt lat="50.579888" lon="2.979700">
        <ele>19.567511</ele>
        <time>2026-09-21T08:31:34.980Z</time>
      </trkpt>
      <trkpt lat="50.579867" lon="2.979404">
        <ele>19.567511</ele>
        <time>2026-09-21T08:31:42.666Z</time>
      </trkpt>
      <trkpt lat="50.579909" lon="2.979390">
        <ele>19.567511</ele>
        <time>2026-09-21T08:31:44.395Z</time>
      </trkpt>
      <trkpt lat="50.579866" lon="2.978966">
        <ele>19.561133</ele>
        <time>2026-09-21T08:31:55.464Z</time>
      </trkpt>
      <trkpt lat="50.579813" lon="2.978807">
        <ele>19.555956</ele>
        <time>2026-09-21T08:32:00.120Z</time>
      </trkpt>
      <trkpt lat="50.579693" lon="2.978679">
        <ele>19.549377</ele>
        <time>2026-09-21T08:32:06.036Z</time>
      </trkpt>
      <trkpt lat="50.579488" lon="2.978594">
        <ele>19.539754</ele>
        <time>2026-09-21T08:32:14.722Z</time>
      </trkpt>
      <trkpt lat="50.579275" lon="2.978643">
        <ele>19.529982</ele>
        <time>2026-09-21T08:32:23.545Z</time>
      </trkpt>
      <trkpt lat="50.579155" lon="2.978576">
        <ele>19.524203</ele>
        <time>2026-09-21T08:32:28.753Z</time>
      </trkpt>
      <trkpt lat="50.578932" lon="2.978681">
        <ele>19.513637</ele>
        <time>2026-09-21T08:32:38.314Z</time>
      </trkpt>
      <trkpt lat="50.578985" lon="2.978997">
        <ele>19.504216</ele>
        <time>2026-09-21T08:32:46.930Z</time>
      </trkpt>
      <trkpt lat="50.579081" lon="2.979160">
        <ele>19.497807</ele>
        <time>2026-09-21T08:32:52.761Z</time>
      </trkpt>
      <trkpt lat="50.579268" lon="2.979169">
        <ele>19.489314</ele>
        <time>2026-09-21T08:33:00.530Z</time>
      </trkpt>
      <trkpt lat="50.579453" lon="2.979089">
        <ele>19.442022</ele>
        <time>2026-09-21T08:33:08.469Z</time>
      </trkpt>
      <trkpt lat="50.579537" lon="2.978798">
        <ele>19.365183</ele>
        <time>2026-09-21T08:33:16.963Z</time>
      </trkpt>
      <trkpt lat="50.579813" lon="2.977589">
        <ele>19.056355</ele>
        <time>2026-09-21T08:33:50.327Z</time>
      </trkpt>
      <trkpt lat="50.579877" lon="2.977216">
        <ele>18.963478</ele>
        <time>2026-09-21T08:34:00.151Z</time>
      </trkpt>
      <trkpt lat="50.579843" lon="2.977041">
        <ele>18.919487</ele>
        <time>2026-09-21T08:34:04.805Z</time>
      </trkpt>
      <trkpt lat="50.579529" lon="2.977438">
        <ele>18.749785</ele>
        <time>2026-09-21T08:34:20.910Z</time>
      </trkpt>
      <trkpt lat="50.579452" lon="2.977599">
        <ele>18.679279</ele>
        <time>2026-09-21T08:34:26.012Z</time>
      </trkpt>
      <trkpt lat="50.578725" lon="2.977298">
        <ele>18.265186</ele>
        <time>2026-09-21T08:34:56.051Z</time>
      </trkpt>
      <trkpt lat="50.578204" lon="2.977020">
        <ele>17.962153</ele>
        <time>2026-09-21T08:35:18.334Z</time>
      </trkpt>
      <trkpt lat="50.577235" lon="2.976379">
        <ele>18.791097</ele>
        <time>2026-09-21T08:36:02.632Z</time>
      </trkpt>
      <trkpt lat="50.577301" lon="2.976201">
        <ele>18.954537</ele>
        <time>2026-09-21T08:36:08.247Z</time>
      </trkpt>
      <trkpt lat="50.577429" lon="2.975946">
        <ele>19.212275</ele>
        <time>2026-09-21T08:36:17.200Z</time>
      </trkpt>
      <trkpt lat="50.577880" lon="2.975042">
        <ele>20.135744</ele>
        <time>2026-09-21T08:36:49.827Z</time>
      </trkpt>
      <trkpt lat="50.577844" lon="2.974897">
        <ele>20.282243</ele>
        <time>2026-09-21T08:36:54.278Z</time>
      </trkpt>
      <trkpt lat="50.577834" lon="2.974701">
        <ele>20.467268</ele>
        <time>2026-09-21T08:36:59.809Z</time>
      </trkpt>
      <trkpt lat="50.577885" lon="2.974270">
        <ele>20.879810</ele>
        <time>2026-09-21T08:37:12.038Z</time>
      </trkpt>
      <trkpt lat="50.577871" lon="2.974071">
        <ele>21.068209</ele>
        <time>2026-09-21T08:37:17.610Z</time>
      </trkpt>
      <trkpt lat="50.578344" lon="2.973864">
        <ele>21.795655</ele>
        <time>2026-09-21T08:37:39.272Z</time>
      </trkpt>
      <trkpt lat="50.578735" lon="2.973236">
        <ele>22.623224</ele>
        <time>2026-09-21T08:38:03.259Z</time>
      </trkpt>
      <trkpt lat="50.578869" lon="2.972784">
        <ele>22.639575</ele>
        <time>2026-09-21T08:38:16.361Z</time>
      </trkpt>
      <trkpt lat="50.578902" lon="2.972490">
        <ele>22.574071</ele>
        <time>2026-09-21T08:38:24.125Z</time>
      </trkpt>
      <trkpt lat="50.578901" lon="2.971215">
        <ele>22.294335</ele>
        <time>2026-09-21T08:38:56.829Z</time>
      </trkpt>
      <trkpt lat="50.578975" lon="2.970939">
        <ele>22.228604</ele>
        <time>2026-09-21T08:39:04.502Z</time>
      </trkpt>
      <trkpt lat="50.579230" lon="2.970531">
        <ele>22.103110</ele>
        <time>2026-09-21T08:39:19.149Z</time>
      </trkpt>
      <trkpt lat="50.579338" lon="2.970249">
        <ele>22.040508</ele>
        <time>2026-09-21T08:39:27.597Z</time>
      </trkpt>
      <trkpt lat="50.579344" lon="2.970195">
        <ele>22.030087</ele>
        <time>2026-09-21T08:39:29.003Z</time>
      </trkpt>
      <trkpt lat="50.579314" lon="2.970092">
        <ele>22.008546</ele>
        <time>2026-09-21T08:39:31.897Z</time>
      </trkpt>
      <trkpt lat="50.579138" lon="2.969926">
        <ele>21.947132</ele>
        <time>2026-09-21T08:39:40.188Z</time>
      </trkpt>
      <trkpt lat="50.579003" lon="2.969798">
        <ele>21.899959</ele>
        <time>2026-09-21T08:39:46.560Z</time>
      </trkpt>
      <trkpt lat="50.578452" lon="2.969128">
        <ele>21.691563</ele>
        <time>2026-09-21T08:40:14.921Z</time>
      </trkpt>
      <trkpt lat="50.578301" lon="2.968875">
        <ele>21.625559</ele>
        <time>2026-09-21T08:40:24.007Z</time>
      </trkpt>
      <trkpt lat="50.578155" lon="2.968770">
        <ele>21.577511</ele>
        <time>2026-09-21T08:40:30.627Z</time>
      </trkpt>
      <trkpt lat="50.578097" lon="2.968688">
        <ele>21.585439</ele>
        <time>2026-09-21T08:40:33.828Z</time>
      </trkpt>
      <trkpt lat="50.578007" lon="2.968652">
        <ele>21.635379</ele>
        <time>2026-09-21T08:40:37.711Z</time>
      </trkpt>
      <trkpt lat="50.577558" lon="2.969004">
        <ele>21.905124</ele>
        <time>2026-09-21T08:40:58.698Z</time>
      </trkpt>
      <trkpt lat="50.577530" lon="2.969026">
        <ele>21.921953</ele>
        <time>2026-09-21T08:41:00.022Z</time>
      </trkpt>
      <trkpt lat="50.577422" lon="2.969062">
        <ele>21.981323</ele>
        <time>2026-09-21T08:41:04.648Z</time>
      </trkpt>
      <trkpt lat="50.577232" lon="2.969245">
        <ele>22.101105</ele>
        <time>2026-09-21T08:41:14.015Z</time>
      </trkpt>
      <trkpt lat="50.576956" lon="2.969446">
        <ele>22.264645</ele>
        <time>2026-09-21T08:41:26.846Z</time>
      </trkpt>
      <trkpt lat="50.576930" lon="2.969536">
        <ele>22.298414</ele>
        <time>2026-09-21T08:41:29.961Z</time>
      </trkpt>
      <trkpt lat="50.576898" lon="2.969645">
        <ele>22.339426</ele>
        <time>2026-09-21T08:41:33.766Z</time>
      </trkpt>
      <trkpt lat="50.576898" lon="2.969766">
        <ele>22.380752</ele>
        <time>2026-09-21T08:41:37.597Z</time>
      </trkpt>
      <trkpt lat="50.576839" lon="2.969883">
        <ele>22.431777</ele>
        <time>2026-09-21T08:41:42.291Z</time>
      </trkpt>
      <trkpt lat="50.576800" lon="2.969959">
        <ele>22.465148</ele>
        <time>2026-09-21T08:41:45.374Z</time>
      </trkpt>
      <trkpt lat="50.576701" lon="2.969983">
        <ele>22.519019</ele>
        <time>2026-09-21T08:41:50.363Z</time>
      </trkpt>
      <trkpt lat="50.576613" lon="2.969858">
        <ele>22.543590</ele>
        <time>2026-09-21T08:41:56.249Z</time>
      </trkpt>
      <trkpt lat="50.576623" lon="2.969677">
        <ele>22.557109</ele>
        <time>2026-09-21T08:42:01.994Z</time>
      </trkpt>
      <trkpt lat="50.576604" lon="2.969589">
        <ele>22.564026</ele>
        <time>2026-09-21T08:42:04.901Z</time>
      </trkpt>
      <trkpt lat="50.576580" lon="2.969482">
        <ele>22.572470</ele>
        <time>2026-09-21T08:42:08.448Z</time>
      </trkpt>
      <trkpt lat="50.575989" lon="2.968801">
        <ele>22.658279</ele>
        <time>2026-09-21T08:42:38.635Z</time>
      </trkpt>
      <trkpt lat="50.574917" lon="2.967376">
        <ele>22.656460</ele>
        <time>2026-09-21T08:43:35.985Z</time>
      </trkpt>
      <trkpt lat="50.574019" lon="2.966283">
        <ele>22.506504</ele>
        <time>2026-09-21T08:44:22.465Z</time>
      </trkpt>
      <trkpt lat="50.573961" lon="2.966168">
        <ele>22.464991</ele>
        <time>2026-09-21T08:44:26.279Z</time>
      </trkpt>
      <trkpt lat="50.573841" lon="2.965934">
        <ele>22.379969</ele>
        <time>2026-09-21T08:44:34.090Z</time>
      </trkpt>
      <trkpt lat="50.573845" lon="2.965779">
        <ele>22.336116</ele>
        <time>2026-09-21T08:44:38.124Z</time>
      </trkpt>
      <trkpt lat="50.574036" lon="2.965505">
        <ele>22.221106</ele>
        <time>2026-09-21T08:44:48.699Z</time>
      </trkpt>
      <trkpt lat="50.574200" lon="2.965344">
        <ele>22.135081</ele>
        <time>2026-09-21T08:44:56.607Z</time>
      </trkpt>
      <trkpt lat="50.574247" lon="2.965229">
        <ele>22.096423</ele>
        <time>2026-09-21T08:45:00.157Z</time>
      </trkpt>
      <trkpt lat="50.574221" lon="2.965053">
        <ele>22.045342</ele>
        <time>2026-09-21T08:45:04.813Z</time>
      </trkpt>
      <trkpt lat="50.574152" lon="2.964892">
        <ele>21.990436</ele>
        <time>2026-09-21T08:45:09.834Z</time>
      </trkpt>
      <trkpt lat="50.573750" lon="2.963960">
        <ele>21.648786</ele>
        <time>2026-09-21T08:45:38.566Z</time>
      </trkpt>
      <trkpt lat="50.573648" lon="2.963863">
        <ele>21.564654</ele>
        <time>2026-09-21T08:45:43.317Z</time>
      </trkpt>
      <trkpt lat="50.573565" lon="2.963844">
        <ele>21.505436</ele>
        <time>2026-09-21T08:45:46.697Z</time>
      </trkpt>
      <trkpt lat="50.573574" lon="2.963773">
        <ele>21.472972</ele>
        <time>2026-09-21T08:45:48.532Z</time>
      </trkpt>
      <trkpt lat="50.573696" lon="2.963638">
        <ele>21.367691</ele>
        <time>2026-09-21T08:45:54.519Z</time>
      </trkpt>
      <trkpt lat="50.573455" lon="2.963641">
        <ele>21.197529</ele>
        <time>2026-09-21T08:46:04.208Z</time>
      </trkpt>
      <trkpt lat="50.573276" lon="2.963738">
        <ele>21.063871</ele>
        <time>2026-09-21T08:46:11.851Z</time>
      </trkpt>
      <trkpt lat="50.573006" lon="2.963963">
        <ele>20.848187</ele>
        <time>2026-09-21T08:46:24.173Z</time>
      </trkpt>
      <trkpt lat="50.572666" lon="2.964283">
        <ele>20.568515</ele>
        <time>2026-09-21T08:46:40.163Z</time>
      </trkpt>
      <trkpt lat="50.572226" lon="2.964835">
        <ele>20.206423</ele>
        <time>2026-09-21T08:47:03.167Z</time>
      </trkpt>
      <trkpt lat="50.571606" lon="2.965467">
        <ele>19.752715</ele>
        <time>2026-09-21T08:47:33.294Z</time>
      </trkpt>
      <trkpt lat="50.571417" lon="2.965582">
        <ele>19.628246</ele>
        <time>2026-09-21T08:47:41.490Z</time>
      </trkpt>
      <trkpt lat="50.571183" lon="2.965896">
        <ele>19.439381</ele>
        <time>2026-09-21T08:47:53.779Z</time>
      </trkpt>
      <trkpt lat="50.571075" lon="2.965993">
        <ele>19.363002</ele>
        <time>2026-09-21T08:47:58.671Z</time>
      </trkpt>
      <trkpt lat="50.571034" lon="2.966102">
        <ele>19.307546</ele>
        <time>2026-09-21T08:48:01.880Z</time>
      </trkpt>
      <trkpt lat="50.571019" lon="2.966387">
        <ele>19.166817</ele>
        <time>2026-09-21T08:48:09.078Z</time>
      </trkpt>
      <trkpt lat="50.571038" lon="2.966591">
        <ele>19.065355</ele>
        <time>2026-09-21T08:48:14.283Z</time>
      </trkpt>
      <trkpt lat="50.571040" lon="2.966713">
        <ele>19.005299</ele>
        <time>2026-09-21T08:48:17.357Z</time>
      </trkpt>
      <trkpt lat="50.570764" lon="2.967192">
        <ele>18.687034</ele>
        <time>2026-09-21T08:48:33.705Z</time>
      </trkpt>
      <trkpt lat="50.570645" lon="2.967438">
        <ele>18.534862</ele>
        <time>2026-09-21T08:48:41.543Z</time>
      </trkpt>
      <trkpt lat="50.570505" lon="2.967350">
        <ele>18.418064</ele>
        <time>2026-09-21T08:48:47.617Z</time>
      </trkpt>
      <trkpt lat="50.570438" lon="2.967270">
        <ele>18.352912</ele>
        <time>2026-09-21T08:48:50.969Z</time>
      </trkpt>
      <trkpt lat="50.569823" lon="2.966416">
        <ele>18.307757</ele>
        <time>2026-09-21T08:49:24.448Z</time>
      </trkpt>
      <trkpt lat="50.569529" lon="2.966002">
        <ele>18.802042</ele>
        <time>2026-09-21T08:49:41.817Z</time>
      </trkpt>
      <trkpt lat="50.569392" lon="2.965797">
        <ele>19.038891</ele>
        <time>2026-09-21T08:49:50.245Z</time>
      </trkpt>
      <trkpt lat="50.569407" lon="2.965745">
        <ele>19.084348</ele>
        <time>2026-09-21T08:49:51.876Z</time>
      </trkpt>
      <trkpt lat="50.569437" lon="2.965643">
        <ele>19.173815</ele>
        <time>2026-09-21T08:49:55.073Z</time>
      </trkpt>
      <trkpt lat="50.569450" lon="2.965724">
        <ele>19.240312</ele>
        <time>2026-09-21T08:49:57.421Z</time>
      </trkpt>
      <trkpt lat="50.569207" lon="2.966587">
        <ele>19.991676</ele>
        <time>2026-09-21T08:50:23.540Z</time>
      </trkpt>
      <trkpt lat="50.569209" lon="2.966757">
        <ele>20.127008</ele>
        <time>2026-09-21T08:50:28.240Z</time>
      </trkpt>
      <trkpt lat="50.569128" lon="2.967084">
        <ele>20.200799</ele>
        <time>2026-09-21T08:50:37.864Z</time>
      </trkpt>
      <trkpt lat="50.569097" lon="2.967382">
        <ele>20.205134</ele>
        <time>2026-09-21T08:50:46.211Z</time>
      </trkpt>
      <trkpt lat="50.569116" lon="2.967580">
        <ele>20.208008</ele>
        <time>2026-09-21T08:50:51.712Z</time>
      </trkpt>
      <trkpt lat="50.569202" lon="2.967938">
        <ele>20.213502</ele>
        <time>2026-09-21T08:51:01.952Z</time>
      </trkpt>
      <trkpt lat="50.569229" lon="2.968048">
        <ele>20.215195</ele>
        <time>2026-09-21T08:51:05.052Z</time>
      </trkpt>
      <trkpt lat="50.569467" lon="2.968973">
        <ele>20.229521</ele>
        <time>2026-09-21T08:51:30.530Z</time>
      </trkpt>
      <trkpt lat="50.569512" lon="2.969153">
        <ele>20.232298</ele>
        <time>2026-09-21T08:51:35.382Z</time>
      </trkpt>
      <trkpt lat="50.569569" lon="2.968900">
        <ele>20.236152</ele>
        <time>2026-09-21T08:51:42.170Z</time>
      </trkpt>
      <trkpt lat="50.569687" lon="2.967516">
        <ele>19.803151</ele>
        <time>2026-09-21T08:52:17.961Z</time>
      </trkpt>
      <trkpt lat="50.569725" lon="2.967282">
        <ele>19.721818</ele>
        <time>2026-09-21T08:52:24.136Z</time>
      </trkpt>
      <trkpt lat="50.570473" lon="2.968369">
        <ele>19.257902</ele>
        <time>2026-09-21T08:53:05.626Z</time>
      </trkpt>
      <trkpt lat="50.571696" lon="2.970804">
        <ele>18.955964</ele>
        <time>2026-09-21T08:54:40.686Z</time>
      </trkpt>
      <trkpt lat="50.571709" lon="2.970918">
        <ele>18.939175</ele>
        <time>2026-09-21T08:54:43.695Z</time>
      </trkpt>
      <trkpt lat="50.571693" lon="2.971012">
        <ele>18.925068</ele>
        <time>2026-09-21T08:54:46.232Z</time>
      </trkpt>
      <trkpt lat="50.571620" lon="2.971125">
        <ele>18.901704</ele>
        <time>2026-09-21T08:54:50.455Z</time>
      </trkpt>
      <trkpt lat="50.571425" lon="2.971717">
        <ele>18.805034</ele>
        <time>2026-09-21T08:55:07.728Z</time>
      </trkpt>
      <trkpt lat="50.571472" lon="2.971785">
        <ele>18.790466</ele>
        <time>2026-09-21T08:55:10.342Z</time>
      </trkpt>
      <trkpt lat="50.571549" lon="2.971915">
        <ele>18.764698</ele>
        <time>2026-09-21T08:55:14.934Z</time>
      </trkpt>
      <trkpt lat="50.571608" lon="2.971962">
        <ele>18.749607</ele>
        <time>2026-09-21T08:55:17.645Z</time>
      </trkpt>
      <trkpt lat="50.571889" lon="2.971555">
        <ele>18.662463</ele>
        <time>2026-09-21T08:55:33.218Z</time>
      </trkpt>
      <trkpt lat="50.572014" lon="2.971556">
        <ele>18.633933</ele>
        <time>2026-09-21T08:55:38.273Z</time>
      </trkpt>
      <trkpt lat="50.572397" lon="2.972111">
        <ele>18.510205</ele>
        <time>2026-09-21T08:55:59.425Z</time>
      </trkpt>
      <trkpt lat="50.574409" lon="2.974723">
        <ele>18.138457</ele>
        <time>2026-09-21T08:57:46.044Z</time>
      </trkpt>
      <trkpt lat="50.573983" lon="2.975435">
        <ele>18.136284</ele>
        <time>2026-09-21T08:58:11.730Z</time>
      </trkpt>
      <trkpt lat="50.573795" lon="2.975747">
        <ele>18.180845</ele>
        <time>2026-09-21T08:58:23.043Z</time>
      </trkpt>
      <trkpt lat="50.572968" lon="2.974672">
        <ele>18.355800</ele>
        <time>2026-09-21T08:59:07.453Z</time>
      </trkpt>
      <trkpt lat="50.572905" lon="2.974614">
        <ele>18.367706</ele>
        <time>2026-09-21T08:59:10.449Z</time>
      </trkpt>
      <trkpt lat="50.572849" lon="2.974611">
        <ele>18.376847</ele>
        <time>2026-09-21T08:59:12.766Z</time>
      </trkpt>
      <trkpt lat="50.572719" lon="2.974757">
        <ele>18.402898</ele>
        <time>2026-09-21T08:59:19.332Z</time>
      </trkpt>
      <trkpt lat="50.569906" lon="2.978700">
        <ele>19.000520</ele>
        <time>2026-09-21T09:01:54.552Z</time>
      </trkpt>
      <trkpt lat="50.569960" lon="2.978849">
        <ele>19.071524</ele>
        <time>2026-09-21T09:01:59.154Z</time>
      </trkpt>
      <trkpt lat="50.570053" lon="2.978991">
        <ele>19.155946</ele>
        <time>2026-09-21T09:02:04.660Z</time>
      </trkpt>
      <trkpt lat="50.570161" lon="2.979250">
        <ele>19.284182</ele>
        <time>2026-09-21T09:02:12.979Z</time>
      </trkpt>
      <trkpt lat="50.570607" lon="2.979916">
        <ele>19.684749</ele>
        <time>2026-09-21T09:02:39.128Z</time>
      </trkpt>
      <trkpt lat="50.572080" lon="2.982166">
        <ele>20.735030</ele>
        <time>2026-09-21T09:04:05.344Z</time>
      </trkpt>
      <trkpt lat="50.572270" lon="2.981906">
        <ele>20.848806</ele>
        <time>2026-09-21T09:04:15.717Z</time>
      </trkpt>
      <trkpt lat="50.572392" lon="2.981930">
        <ele>20.895329</ele>
        <time>2026-09-21T09:04:20.780Z</time>
      </trkpt>
      <trkpt lat="50.572923" lon="2.982989">
        <ele>20.722434</ele>
        <time>2026-09-21T09:04:55.745Z</time>
      </trkpt>
      <trkpt lat="50.573069" lon="2.983103">
        <ele>20.689554</ele>
        <time>2026-09-21T09:05:02.391Z</time>
      </trkpt>
      <trkpt lat="50.573220" lon="2.983152">
        <ele>20.658447</ele>
        <time>2026-09-21T09:05:08.662Z</time>
      </trkpt>
      <trkpt lat="50.573459" lon="2.983229">
        <ele>20.609227</ele>
        <time>2026-09-21T09:05:18.583Z</time>
      </trkpt>
      <trkpt lat="50.573717" lon="2.983394">
        <ele>20.553042</ele>
        <time>2026-09-21T09:05:29.926Z</time>
      </trkpt>
      <trkpt lat="50.574273" lon="2.983836">
        <ele>20.601500</ele>
        <time>2026-09-21T09:05:55.399Z</time>
      </trkpt>
      <trkpt lat="50.574334" lon="2.983991">
        <ele>20.615859</ele>
        <time>2026-09-21T09:06:00.154Z</time>
      </trkpt>
      <trkpt lat="50.574310" lon="2.984266">
        <ele>20.637718</ele>
        <time>2026-09-21T09:06:07.383Z</time>
      </trkpt>
      <trkpt lat="50.574346" lon="2.984521">
        <ele>20.658289</ele>
        <time>2026-09-21T09:06:14.257Z</time>
      </trkpt>
      <trkpt lat="50.574588" lon="2.985007">
        <ele>20.706921</ele>
        <time>2026-09-21T09:06:30.559Z</time>
      </trkpt>
      <trkpt lat="50.574700" lon="2.985125">
        <ele>20.723630</ele>
        <time>2026-09-21T09:06:36.130Z</time>
      </trkpt>
      <trkpt lat="50.574854" lon="2.985111">
        <ele>20.742757</ele>
        <time>2026-09-21T09:06:42.602Z</time>
      </trkpt>
      <trkpt lat="50.574961" lon="2.985181">
        <ele>20.757125</ele>
        <time>2026-09-21T09:06:47.434Z</time>
      </trkpt>
      <trkpt lat="50.575026" lon="2.985276">
        <ele>20.768671</ele>
        <time>2026-09-21T09:06:51.142Z</time>
      </trkpt>
      <trkpt lat="50.575147" lon="2.985593">
        <ele>20.799416</ele>
        <time>2026-09-21T09:07:00.961Z</time>
      </trkpt>
      <trkpt lat="50.575218" lon="2.985701">
        <ele>20.812337</ele>
        <time>2026-09-21T09:07:05.057Z</time>
      </trkpt>
      <trkpt lat="50.575441" lon="2.985924">
        <ele>20.846916</ele>
        <time>2026-09-21T09:07:16.015Z</time>
      </trkpt>
      <trkpt lat="50.575549" lon="2.985939">
        <ele>20.861108</ele>
        <time>2026-09-21T09:07:20.506Z</time>
      </trkpt>
      <trkpt lat="50.575696" lon="2.985804">
        <ele>20.883383</ele>
        <time>2026-09-21T09:07:27.544Z</time>
      </trkpt>
      <trkpt lat="50.575859" lon="2.985567">
        <ele>20.912423</ele>
        <time>2026-09-21T09:07:36.660Z</time>
      </trkpt>
      <trkpt lat="50.576073" lon="2.985369">
        <ele>20.944913</ele>
        <time>2026-09-21T09:07:46.806Z</time>
      </trkpt>
      <trkpt lat="50.576206" lon="2.985295">
        <ele>20.963377</ele>
        <time>2026-09-21T09:07:52.569Z</time>
      </trkpt>
      <trkpt lat="50.576379" lon="2.985141">
        <ele>20.989390</ele>
        <time>2026-09-21T09:08:00.709Z</time>
      </trkpt>
      <trkpt lat="50.576428" lon="2.985064">
        <ele>20.993481</ele>
        <time>2026-09-21T09:08:03.542Z</time>
      </trkpt>
      <trkpt lat="50.576525" lon="2.984801">
        <ele>20.992415</ele>
        <time>2026-09-21T09:08:11.447Z</time>
      </trkpt>
      <trkpt lat="50.576598" lon="2.984301">
        <ele>20.990617</ele>
        <time>2026-09-21T09:08:24.781Z</time>
      </trkpt>
      <trkpt lat="50.576833" lon="2.983352">
        <ele>20.987049</ele>
        <time>2026-09-21T09:08:51.306Z</time>
      </trkpt>
      <trkpt lat="50.576946" lon="2.982835">
        <ele>20.985133</ele>
        <time>2026-09-21T09:09:05.648Z</time>
      </trkpt>
      <trkpt lat="50.577021" lon="2.982440">
        <ele>20.981314</ele>
        <time>2026-09-21T09:09:16.452Z</time>
      </trkpt>
      <trkpt lat="50.577167" lon="2.981277">
        <ele>20.835614</ele>
        <time>2026-09-21T09:09:47.468Z</time>
      </trkpt>
      <trkpt lat="50.577289" lon="2.980645">
        <ele>20.754431</ele>
        <time>2026-09-21T09:10:04.643Z</time>
      </trkpt>
      <trkpt lat="50.577446" lon="2.979837">
        <ele>20.650582</ele>
        <time>2026-09-21T09:10:26.462Z</time>
      </trkpt>
      <trkpt lat="50.577702" lon="2.978815">
        <ele>20.205869</ele>
        <time>2026-09-21T09:10:54.524Z</time>
      </trkpt>
      <trkpt lat="50.577978" lon="2.978978">
        <ele>20.001716</ele>
        <time>2026-09-21T09:11:06.376Z</time>
      </trkpt>
      <trkpt lat="50.578533" lon="2.979201">
        <ele>19.605019</ele>
        <time>2026-09-21T09:11:29.415Z</time>
      </trkpt>
      <trkpt lat="50.578633" lon="2.979081">
        <ele>19.517944</ele>
        <time>2026-09-21T09:11:34.506Z</time>
      </trkpt>
      <trkpt lat="50.578835" lon="2.978791">
        <ele>19.389955</ele>
        <time>2026-09-21T09:11:45.555Z</time>
      </trkpt>
      <trkpt lat="50.578932" lon="2.978681">
        <ele>19.389955</ele>
        <time>2026-09-21T09:11:50.395Z</time>
      </trkpt>
      <trkpt lat="50.579155" lon="2.978576">
        <ele>19.389955</ele>
        <time>2026-09-21T09:11:59.943Z</time>
      </trkpt>
      <trkpt lat="50.579275" lon="2.978643">
        <ele>19.389955</ele>
        <time>2026-09-21T09:12:05.218Z</time>
      </trkpt>
      <trkpt lat="50.579488" lon="2.978594">
        <ele>19.389955</ele>
        <time>2026-09-21T09:12:14.158Z</time>
      </trkpt>
      <trkpt lat="50.579693" lon="2.978679">
        <ele>19.389955</ele>
        <time>2026-09-21T09:12:23.000Z</time>
      </trkpt>
      <trkpt lat="50.579813" lon="2.978807">
        <ele>19.389955</ele>
        <time>2026-09-21T09:12:29.024Z</time>
      </trkpt>
      <trkpt lat="50.579866" lon="2.978966">
        <ele>19.389955</ele>
        <time>2026-09-21T09:12:33.772Z</time>
      </trkpt>
      <trkpt lat="50.579909" lon="2.979390">
        <ele>19.389955</ele>
        <time>2026-09-21T09:12:45.197Z</time>
      </trkpt>
      <trkpt lat="50.579867" lon="2.979404">
        <ele>19.389955</ele>
        <time>2026-09-21T09:12:46.969Z</time>
      </trkpt>
      <trkpt lat="50.579888" lon="2.979700">
        <ele>19.389955</ele>
        <time>2026-09-21T09:12:54.903Z</time>
      </trkpt>
      <trkpt lat="50.579906" lon="2.979978">
        <ele>19.389955</ele>
        <time>2026-09-21T09:13:02.304Z</time>
      </trkpt>
      <trkpt lat="50.579928" lon="2.980263">
        <ele>19.389955</ele>
        <time>2026-09-21T09:13:09.901Z</time>
      </trkpt>
      <trkpt lat="50.579837" lon="2.980269">
        <ele>19.389955</ele>
        <time>2026-09-21T09:13:13.699Z</time>
      </trkpt>
      <trkpt lat="50.579753" lon="2.980258">
        <ele>19.389955</ele>
        <time>2026-09-21T09:13:17.221Z</time>
      </trkpt>
    </trkseg>
  </trk>
</gpx>